start=new Date('2022-07-08T00:00:00.000Z').valueOf();
sats=[{"MEAN_ELEMENT_THEORY":"SGP4","REF_FRAME":"TEME","SITE":"AFETR","EPHEMERIS_TYPE":"0","GP_ID":"207626757","MEAN_MOTION_DOT":"0.00001519","APOAPSIS":"548.237","OBJECT_ID":"2020-070F","LAUNCH_DATE":"2020-10-06","REV_AT_EPOCH":"9741","ELEMENT_SET_NO":"999","ECCENTRICITY":"0.00014840","TLE_LINE1":"1 46537U 20070F   22188.88648247  .00001519  00000-0  12083-3 0  9995","BSTAR":"0.00012083000000","RA_OF_ASC_NODE":"75.7071","CLASSIFICATION_TYPE":"U","PERIAPSIS":"546.181","NORAD_CAT_ID":"46537","COUNTRY_CODE":"US","OBJECT_NAME":"STARLINK-1672","PERIOD":"95.592","ARG_OF_PERICENTER":"78.2271","TLE_LINE2":"2 46537  53.0565  75.7071 0001484  78.2271 281.8884 15.06401501 97415","TIME_SYSTEM":"UTC","FILE":"3509470","MEAN_MOTION_DDOT":"0.0000000000000","RCS_SIZE":"LARGE","CENTER_NAME":"EARTH","EPOCH":"2022-07-07T21:16:32.085408","MEAN_ANOMALY":"281.8884","SEMIMAJOR_AXIS":"6925.344","DECAY_DATE":null,"OBJECT_TYPE":"PAYLOAD","MEAN_MOTION":"15.06401501","INCLINATION":"53.0565"},{"MEAN_ELEMENT_THEORY":"SGP4","REF_FRAME":"TEME","EPHEMERIS_TYPE":"0","SITE":"AFETR","OBJECT_ID":"2020-070G","APOAPSIS":"548.351","MEAN_MOTION_DOT":"0.00004586","GP_ID":"207627507","REV_AT_EPOCH":"9740","ELEMENT_SET_NO":"999","LAUNCH_DATE":"2020-10-06","BSTAR":"0.00032646000000","TLE_LINE1":"1 46538U 20070G   22188.86436333  .00004586  00000-0  32646-3 0  9999","ECCENTRICITY":"0.00016970","RA_OF_ASC_NODE":"75.8130","PERIAPSIS":"546.001","CLASSIFICATION_TYPE":"U","COUNTRY_CODE":"US","NORAD_CAT_ID":"46538","ARG_OF_PERICENTER":"70.9458","PERIOD":"95.591","OBJECT_NAME":"STARLINK-1678","TLE_LINE2":"2 46538  53.0546  75.8130 0001697  70.9458 289.1715 15.06412277 97409","MEAN_MOTION_DDOT":"0.0000000000000","FILE":"3509470","TIME_SYSTEM":"UTC","SEMIMAJOR_AXIS":"6925.311","CENTER_NAME":"EARTH","EPOCH":"2022-07-07T20:44:40.991712","MEAN_ANOMALY":"289.1715","RCS_SIZE":"LARGE","DECAY_DATE":null,"OBJECT_TYPE":"PAYLOAD","INCLINATION":"53.0546","MEAN_MOTION":"15.06412277"},{"TLE_LINE2":"2 46541  53.0558  55.6206 0001486  80.9805 279.1353 15.06408129 97698","FILE":"3509470","MEAN_MOTION_DDOT":"0.0000000000000","TIME_SYSTEM":"UTC","COUNTRY_CODE":"US","NORAD_CAT_ID":"46541","ARG_OF_PERICENTER":"80.9805","PERIOD":"95.592","OBJECT_NAME":"STARLINK-1687","OBJECT_TYPE":"PAYLOAD","MEAN_MOTION":"15.06408129","INCLINATION":"53.0558","MEAN_ANOMALY":"279.1353","CENTER_NAME":"EARTH","EPOCH":"2022-07-07T21:51:00.809856","SEMIMAJOR_AXIS":"6925.324","RCS_SIZE":"LARGE","DECAY_DATE":null,"EPHEMERIS_TYPE":"0","SITE":"AFETR","OBJECT_ID":"2020-070K","MEAN_MOTION_DOT":"0.00001012","GP_ID":"207627753","APOAPSIS":"548.218","MEAN_ELEMENT_THEORY":"SGP4","REF_FRAME":"TEME","RA_OF_ASC_NODE":"55.6206","PERIAPSIS":"546.160","CLASSIFICATION_TYPE":"U","REV_AT_EPOCH":"9769","ELEMENT_SET_NO":"999","LAUNCH_DATE":"2020-10-06","BSTAR":"0.00008680500000","ECCENTRICITY":"0.00014860","TLE_LINE1":"1 46541U 20070K   22188.91042604  .00001012  00000-0  86805-4 0  9991"},{"EPHEMERIS_TYPE":"0","SITE":"AFETR","OBJECT_ID":"2020-070L","MEAN_MOTION_DOT":"0.00001553","GP_ID":"207606841","APOAPSIS":"548.362","MEAN_ELEMENT_THEORY":"SGP4","REF_FRAME":"TEME","RA_OF_ASC_NODE":"75.9019","PERIAPSIS":"546.033","CLASSIFICATION_TYPE":"U","REV_AT_EPOCH":"9741","ELEMENT_SET_NO":"999","LAUNCH_DATE":"2020-10-06","BSTAR":"0.00012312000000","ECCENTRICITY":"0.00016820","TLE_LINE1":"1 46542U 20070L   22188.84592953  .00001553  00000-0  12312-3 0  9992","TLE_LINE2":"2 46542  53.0554  75.9019 0001682  69.0134 291.1035 15.06405255 97411","FILE":"3509417","MEAN_MOTION_DDOT":"0.0000000000000","TIME_SYSTEM":"UTC","COUNTRY_CODE":"US","NORAD_CAT_ID":"46542","PERIOD":"95.592","ARG_OF_PERICENTER":"69.0134","OBJECT_NAME":"STARLINK-1692","OBJECT_TYPE":"PAYLOAD","MEAN_MOTION":"15.06405255","INCLINATION":"53.0554","EPOCH":"2022-07-07T20:18:08.311392","CENTER_NAME":"EARTH","MEAN_ANOMALY":"291.1035","SEMIMAJOR_AXIS":"6925.332","RCS_SIZE":"LARGE","DECAY_DATE":null},{"TIME_SYSTEM":"UTC","FILE":"3509417","MEAN_MOTION_DDOT":"0.0000000000000","TLE_LINE2":"2 46543  53.0559  75.9625 0001842  74.7982 285.3210 15.06394794 97428","OBJECT_NAME":"STARLINK-1693","PERIOD":"95.592","ARG_OF_PERICENTER":"74.7982","NORAD_CAT_ID":"46543","COUNTRY_CODE":"US","MEAN_MOTION":"15.06394794","INCLINATION":"53.0559","OBJECT_TYPE":"PAYLOAD","DECAY_DATE":null,"RCS_SIZE":"LARGE","MEAN_ANOMALY":"285.3210","CENTER_NAME":"EARTH","EPOCH":"2022-07-07T19:56:54.973248","SEMIMAJOR_AXIS":"6925.365","GP_ID":"207607246","MEAN_MOTION_DOT":"-0.00000803","APOAPSIS":"548.505","OBJECT_ID":"2020-070M","SITE":"AFETR","EPHEMERIS_TYPE":"0","REF_FRAME":"TEME","MEAN_ELEMENT_THEORY":"SGP4","CLASSIFICATION_TYPE":"U","PERIAPSIS":"545.954","RA_OF_ASC_NODE":"75.9625","ECCENTRICITY":"0.00018420","TLE_LINE1":"1 46543U 20070M   22188.83119182 -.00000803  00000-0 -35011-4 0  9992","BSTAR":"-0.00003501100000","LAUNCH_DATE":"2020-10-06","REV_AT_EPOCH":"9742","ELEMENT_SET_NO":"999"},{"EPHEMERIS_TYPE":"0","SITE":"AFETR","OBJECT_ID":"2020-070N","MEAN_MOTION_DOT":"0.00002133","GP_ID":"207628008","APOAPSIS":"548.295","MEAN_ELEMENT_THEORY":"SGP4","REF_FRAME":"TEME","RA_OF_ASC_NODE":"60.7024","PERIAPSIS":"546.107","CLASSIFICATION_TYPE":"U","ELEMENT_SET_NO":"999","REV_AT_EPOCH":"9762","LAUNCH_DATE":"2020-10-06","BSTAR":"0.00016205000000","ECCENTRICITY":"0.00015800","TLE_LINE1":"1 46544U 20070N   22188.89338952  .00002133  00000-0  16205-3 0  9996","TLE_LINE2":"2 46544  53.0550  60.7024 0001580  80.1164 280.0003 15.06404001 97624","FILE":"3509470","MEAN_MOTION_DDOT":"0.0000000000000","TIME_SYSTEM":"UTC","COUNTRY_CODE":"US","NORAD_CAT_ID":"46544","PERIOD":"95.592","ARG_OF_PERICENTER":"80.1164","OBJECT_NAME":"STARLINK-1694","OBJECT_TYPE":"PAYLOAD","MEAN_MOTION":"15.06404001","INCLINATION":"53.0550","CENTER_NAME":"EARTH","MEAN_ANOMALY":"280.0003","EPOCH":"2022-07-07T21:26:28.854528","SEMIMAJOR_AXIS":"6925.336","RCS_SIZE":"LARGE","DECAY_DATE":null},{"MEAN_ELEMENT_THEORY":"SGP4","REF_FRAME":"TEME","SITE":"AFETR","EPHEMERIS_TYPE":"0","APOAPSIS":"548.331","MEAN_MOTION_DOT":"0.00001448","GP_ID":"207628254","OBJECT_ID":"2020-070P","LAUNCH_DATE":"2020-10-06","REV_AT_EPOCH":"9740","ELEMENT_SET_NO":"999","ECCENTRICITY":"0.00016100","TLE_LINE1":"1 46545U 20070P   22188.86805697  .00001448  00000-0  11610-3 0  9992","BSTAR":"0.00011610000000","RA_OF_ASC_NODE":"75.8094","CLASSIFICATION_TYPE":"U","PERIAPSIS":"546.101","NORAD_CAT_ID":"46545","COUNTRY_CODE":"US","OBJECT_NAME":"STARLINK-1696","ARG_OF_PERICENTER":"80.2202","PERIOD":"95.592","TLE_LINE2":"2 46545  53.0548  75.8094 0001610  80.2202 279.8968 15.06399085 97401","TIME_SYSTEM":"UTC","MEAN_MOTION_DDOT":"0.0000000000000","FILE":"3509470","RCS_SIZE":"LARGE","SEMIMAJOR_AXIS":"6925.351","EPOCH":"2022-07-07T20:50:00.122208","CENTER_NAME":"EARTH","MEAN_ANOMALY":"279.8968","DECAY_DATE":null,"OBJECT_TYPE":"PAYLOAD","INCLINATION":"53.0548","MEAN_MOTION":"15.06399085"},{"EPOCH":"2022-07-07T20:28:45.061248","MEAN_ANOMALY":"298.1145","CENTER_NAME":"EARTH","SEMIMAJOR_AXIS":"6925.335","RCS_SIZE":"LARGE","DECAY_DATE":null,"OBJECT_TYPE":"PAYLOAD","MEAN_MOTION":"15.06404536","INCLINATION":"53.0555","COUNTRY_CODE":"US","NORAD_CAT_ID":"46546","ARG_OF_PERICENTER":"62.0048","PERIOD":"95.592","OBJECT_NAME":"STARLINK-1697","TLE_LINE2":"2 46546  53.0555  75.8653 0002018  62.0048 298.1145 15.06404536 97117","FILE":"3509419","MEAN_MOTION_DDOT":"0.0000000000000","TIME_SYSTEM":"UTC","REV_AT_EPOCH":"9711","ELEMENT_SET_NO":"999","LAUNCH_DATE":"2020-10-06","BSTAR":"0.00005317100000","TLE_LINE1":"1 46546U 20070Q   22188.85329932  .00000510  00000-0  53171-4 0  9993","ECCENTRICITY":"0.00020180","RA_OF_ASC_NODE":"75.8653","PERIAPSIS":"545.802","CLASSIFICATION_TYPE":"U","MEAN_ELEMENT_THEORY":"SGP4","REF_FRAME":"TEME","EPHEMERIS_TYPE":"0","SITE":"AFETR","OBJECT_ID":"2020-070Q","MEAN_MOTION_DOT":"0.00000510","GP_ID":"207607256","APOAPSIS":"548.597"},{"OBJECT_TYPE":"PAYLOAD","INCLINATION":"53.0545","MEAN_MOTION":"15.06409805","SEMIMAJOR_AXIS":"6925.319","MEAN_ANOMALY":"291.5283","EPOCH":"2022-07-07T21:09:51.617088","CENTER_NAME":"EARTH","RCS_SIZE":"LARGE","DECAY_DATE":null,"TLE_LINE2":"2 46547  53.0545  75.7290 0001698  68.5887 291.5283 15.06409805 97415","MEAN_MOTION_DDOT":"0.0000000000000","FILE":"3509470","TIME_SYSTEM":"UTC","COUNTRY_CODE":"US","NORAD_CAT_ID":"46547","PERIOD":"95.592","ARG_OF_PERICENTER":"68.5887","OBJECT_NAME":"STARLINK-1698","RA_OF_ASC_NODE":"75.7290","PERIAPSIS":"546.008","CLASSIFICATION_TYPE":"U","REV_AT_EPOCH":"9741","ELEMENT_SET_NO":"999","LAUNCH_DATE":"2020-10-06","BSTAR":"0.00049131000000","ECCENTRICITY":"0.00016980","TLE_LINE1":"1 46547U 20070R   22188.88184742  .00007046  00000-0  49131-3 0  9996","EPHEMERIS_TYPE":"0","SITE":"AFETR","OBJECT_ID":"2020-070R","APOAPSIS":"548.359","GP_ID":"207626758","MEAN_MOTION_DOT":"0.00007046","MEAN_ELEMENT_THEORY":"SGP4","REF_FRAME":"TEME"},{"DECAY_DATE":null,"RCS_SIZE":"LARGE","EPOCH":"2022-07-07T21:27:08.790336","MEAN_ANOMALY":"288.8004","CENTER_NAME":"EARTH","SEMIMAJOR_AXIS":"6925.300","MEAN_MOTION":"15.06415851","INCLINATION":"53.0542","OBJECT_TYPE":"PAYLOAD","OBJECT_NAME":"STARLINK-1699","ARG_OF_PERICENTER":"71.3143","PERIOD":"95.591","NORAD_CAT_ID":"46548","COUNTRY_CODE":"US","TIME_SYSTEM":"UTC","FILE":"3509470","MEAN_MOTION_DDOT":"0.0000000000000","TLE_LINE2":"2 46548  53.0542  75.6878 0001463  71.3143 288.8004 15.06415851 97419","TLE_LINE1":"1 46548U 20070S   22188.89385174  .00006742  00000-0  47089-3 0  9992","ECCENTRICITY":"0.00014630","BSTAR":"0.00047089000000","LAUNCH_DATE":"2020-10-06","REV_AT_EPOCH":"9741","ELEMENT_SET_NO":"999","CLASSIFICATION_TYPE":"U","PERIAPSIS":"546.152","RA_OF_ASC_NODE":"75.6878","REF_FRAME":"TEME","MEAN_ELEMENT_THEORY":"SGP4","MEAN_MOTION_DOT":"0.00006742","GP_ID":"207627508","APOAPSIS":"548.178","OBJECT_ID":"2020-070S","SITE":"AFETR","EPHEMERIS_TYPE":"0"}];
